NORAD_CAT_ID,OBJECT_NAME,OBJECT_TYPE,EPOCH,MEAN_MOTION,ECCENTRICITY,INCLINATION,RA_OF_ASC_NODE,ARG_OF_PERICENTER,MEAN_ANOMALY,BSTAR,MEAN_MOTION_DOT,MEAN_MOTION_DDOT,TLE_LINE0,TLE_LINE1,TLE_LINE2,SEMIMAJOR_AXIS,PERIOD,APOGEE,PERIGEE,DECAYED
52139.0,STARLINK-3730,PAYLOAD,2024-02-17 21:01:36,15.08839782,0.0001442,53.216,209.6519,93.6395,266.4762,8.8806e-05,1.126e-05,0.0,0 STARLINK-3730,1 52139U 22029BD  24048.87611213  .00001126  00000-0  88806-4 0  9996,2 52139  53.2160 209.6519 0001442  93.6395 266.4762 15.08839782107447,6917.881,95.438,540.744,538.748,0.0
52139.0,STARLINK-3730,PAYLOAD,2024-02-18 14:30:51,15.08837644,0.0001307,53.2152,206.3799,90.9188,269.1954,-7.5223e-05,-1.485e-05,0.0,0 STARLINK-3730,1 52139U 22029BD  24049.60476066 -.00001485  00000-0 -75223-4 0  9992,2 52139  53.2152 206.3799 0001307  90.9188 269.1954 15.08837644107552,6917.888,95.438,540.657,538.848,0.0
52139.0,STARLINK-3730,PAYLOAD,2024-02-18 20:52:23,15.08838778,0.0001319,53.2159,205.1902,88.9198,271.1945,-5.6365e-05,-1.185e-05,0.0,0 STARLINK-3730,1 52139U 22029BD  24049.86971964 -.00001185  00000-0 -56365-4 0  9990,2 52139  53.2159 205.1902 0001319  88.9198 271.1945 15.08838778107599,6917.884,95.438,540.662,538.837,0.0
52139.0,STARLINK-3730,PAYLOAD,2024-02-19 14:21:38,15.08824143,0.0001331,53.2161,201.919,92.0998,268.0147,0.00028387,4.231e-05,0.0,0 STARLINK-3730,1 52139U 22029BD  24050.59836275  .00004231  00000-0  28387-3 0  9992,2 52139  53.2161 201.9190 0001331  92.0998 268.0147 15.08824143107706,6917.929,95.439,540.715,538.873,0.0
52139.0,STARLINK-3730,PAYLOAD,2024-02-19 17:32:24,15.08843117,0.0001405,53.217,201.3231,94.4285,265.6868,8.0541e-05,9.94e-06,0.0,0 STARLINK-3730,1 52139U 22029BD  24050.73083560  .00000994  00000-0  80541-4 0  9992,2 52139  53.2170 201.3231 0001405  94.4285 265.6868 15.08843117107720,6917.871,95.437,540.708,538.764,0.0
52139.0,STARLINK-3730,PAYLOAD,2024-02-20 03:04:43,15.08842645,0.0001303,53.2173,199.5387,78.219,281.8949,-9.5041e-06,-4.39e-06,0.0,0 STARLINK-3730,1 52139U 22029BD  24051.12827824 -.00000439  00000-0 -95041-5 0  9993,2 52139  53.2173 199.5387 0001303  78.2190 281.8949 15.08842645107786,6917.872,95.437,540.639,538.836,0.0
52139.0,STARLINK-3730,PAYLOAD,2024-02-20 18:58:34,15.08839834,0.000146,53.2179,196.565,74.1031,286.0122,0.00011001,1.463e-05,0.0,0 STARLINK-3730,1 52139U 22029BD  24051.79067935  .00001463  00000-0  11001-3 0  9993,2 52139  53.2179 196.5650 0001460  74.1031 286.0122 15.08839834107882,6917.881,95.438,540.756,538.736,0.0
52139.0,STARLINK-3730,PAYLOAD,2024-02-21 14:03:12,15.0884013,0.0001338,53.2176,192.9971,81.1928,278.9216,3.1035e-05,2.06e-06,0.0,0 STARLINK-3730,1 52139U 22029BD  24052.58556037  .00000206  00000-0  31035-4 0  9991,2 52139  53.2176 192.9971 0001338  81.1928 278.9216 15.08840130108002,6917.88,95.438,540.671,538.819,0.0
52139.0,STARLINK-3730,PAYLOAD,2024-02-21 15:38:35,15.08840593,0.000126,53.2178,192.7003,85.8291,274.2845,2.7907e-05,1.56e-06,0.0,0 STARLINK-3730,1 52139U 22029BD  24052.65179958  .00000156  00000-0  27907-4 0  9999,2 52139  53.2178 192.7003 0001260  85.8291 274.2845 15.08840593108017,6917.879,95.438,540.615,538.872,0.0
52139.0,STARLINK-3730,PAYLOAD,2024-02-22 02:46:17,15.08844556,0.0001433,53.2176,190.6208,74.2781,285.8369,4.3581e-05,4.06e-06,0.0,0 STARLINK-3730,1 52139U 22029BD  24053.11547565  .00000406  00000-0  43581-4 0  9998,2 52139  53.2176 190.6208 0001433  74.2781 285.8369 15.08844556108086,6917.866,95.437,540.723,538.74,0.0
52139.0,STARLINK-3730,PAYLOAD,2024-02-22 12:18:36,15.08838215,0.0001473,53.2169,188.8373,83.2447,276.8713,4.0157e-05,3.51e-06,0.0,0 STARLINK-3730,1 52139U 22029BD  24053.51292058  .00000351  00000-0  40157-4 0  9991,2 52139  53.2169 188.8373 0001473  83.2447 276.8713 15.08838215108148,6917.886,95.438,540.77,538.732,0.0
52139.0,STARLINK-3730,PAYLOAD,2024-02-22 15:29:22,15.08839592,0.0001363,53.2182,188.2424,85.9433,274.1714,6.6406e-05,7.69e-06,0.0,0 STARLINK-3730,1 52139U 22029BD  24053.64539847  .00000769  00000-0  66406-4 0  9993,2 52139  53.2182 188.2424 0001363  85.9433 274.1714 15.08839592108169,6917.882,95.438,540.69,538.804,0.0
52139.0,STARLINK-3730,PAYLOAD,2024-02-23 13:44:46,15.08829464,0.0001394,53.2179,184.0796,91.5756,268.5396,7.1972e-05,8.57e-06,0.0,0 STARLINK-3730,1 52139U 22029BD  24054.57276477  .00000857  00000-0  71972-4 0  9995,2 52139  53.2179 184.0796 0001394  91.5756 268.5396 15.08829464108302,6917.913,95.438,540.742,538.813,0.0
52139.0,STARLINK-3730,PAYLOAD,2024-02-23 15:20:09,15.08840145,0.0001423,53.2177,183.7821,88.156,271.9595,-4.1728e-05,-9.52e-06,0.0,0 STARLINK-3730,1 52139U 22029BD  24054.63900299 -.00000952  00000-0 -41728-4 0  9992,2 52139  53.2177 183.7821 0001423  88.1560 271.9595 15.08840145108312,6917.88,95.438,540.729,538.761,0.0
52139.0,STARLINK-3730,PAYLOAD,2024-02-24 15:10:56,15.0883565,0.0001183,53.2173,179.3208,86.7266,273.3861,0.0001413,1.961e-05,0.0,0 STARLINK-3730,1 52139U 22029BD  24055.63260164  .00001961  00000-0  14130-3 0  9998,2 52139  53.2173 179.3208 0001183  86.7266 273.3861 15.08835650108461,6917.894,95.438,540.577,538.94,0.0
52139.0,STARLINK-3730,PAYLOAD,2024-02-25 11:50:57,15.08841973,0.0001418,53.2173,175.4581,100.5541,259.5611,4.0394e-05,3.55e-06,0.0,0 STARLINK-3730,1 52139U 22029BD  24056.49372162  .00000355  00000-0  40394-4 0  9993,2 52139  53.2173 175.4581 0001418 100.5541 259.5611 15.08841973108592,6917.874,95.437,540.72,538.758,0.0
52139.0,STARLINK-3730,PAYLOAD,2024-02-25 15:01:44,15.08791053,0.0001761,53.2175,174.8641,104.4579,255.6609,0.00075806,0.00011781,0.0,0 STARLINK-3730,1 52139U 22029BD  24056.62620862  .00011781  00000-0  75806-3 0  9991,2 52139  53.2175 174.8641 0001761 104.4579 255.6609 15.08791053108619,6918.03,95.441,541.113,538.677,0.0
52139.0,STARLINK-3730,PAYLOAD,2024-02-26 00:34:02,15.08835723,0.0001298,53.2162,173.0801,110.2596,249.8535,2.8109e-05,1.59e-06,0.0,0 STARLINK-3730,1 52139U 22029BD  24057.02364526  .00000159  00000-0  28109-4 0  9990,2 52139  53.2162 173.0801 0001298 110.2596 249.8535 15.08835723108675,6917.893,95.438,540.656,538.861,0.0
52139.0,STARLINK-3730,PAYLOAD,2024-02-26 11:41:45,15.08830542,0.000173,53.2184,171.0002,105.5172,254.6011,-6.2137e-05,-1.277e-05,0.0,0 STARLINK-3730,1 52139U 22029BD  24057.48733549 -.00001277  00000-0 -62137-4 0  9998,2 52139  53.2184 171.0002 0001730 105.5172 254.6011 15.08830542108743,6917.909,95.438,540.971,538.578,0.0
52139.0,STARLINK-3730,PAYLOAD,2024-02-26 13:17:08,15.08834916,0.0001808,53.2189,170.7039,113.4792,246.6391,-0.00010054,-1.888e-05,0.0,0 STARLINK-3730,1 52139U 22029BD  24057.55357478 -.00001888  00000-0 -10054-3 0  9997,2 52139  53.2189 170.7039 0001808 113.4792 246.6391 15.08834916108758,6917.896,95.438,541.012,538.51,0.0
52139.0,STARLINK-3730,PAYLOAD,2024-02-26 18:03:18,15.08832082,0.0001722,53.2184,169.8039,97.0333,263.0855,4.3131e-05,3.98e-06,0.0,0 STARLINK-3730,1 52139U 22029BD  24057.75229214  .00000398  00000-0  43131-4 0  9991,2 52139  53.2184 169.8039 0001722  97.0333 263.0855 15.08832082108788,6917.905,95.438,540.961,538.578,0.0
52139.0,STARLINK-3730,PAYLOAD,2024-02-27 11:32:31,15.08844623,0.0001305,53.2161,166.5337,100.9802,259.1337,-1.4336e-06,-3.11e-06,0.0,0 STARLINK-3730,1 52139U 22029BD  24058.48092575 -.00000311  00000-0 -14336-5 0  9993,2 52139  53.2161 166.5337 0001305 100.9802 259.1337 15.08844623108897,6917.866,95.437,540.634,538.828,0.0
52139.0,STARLINK-3730,PAYLOAD,2024-02-27 14:43:18,15.08847362,0.0001567,53.2175,165.9383,94.9123,265.2048,2.7722e-05,1.53e-06,0.0,0 STARLINK-3730,1 52139U 22029BD  24058.61340351  .00000153  00000-0  27722-4 0  9990,2 52139  53.2175 165.9383 0001567  94.9123 265.2048 15.08847362108917,6917.858,95.437,540.807,538.639,0.0
52139.0,STARLINK-3730,PAYLOAD,2024-02-28 11:23:19,15.08831407,0.0001636,53.2176,162.0763,89.252,270.866,0.00010625,1.403e-05,0.0,0 STARLINK-3730,1 52139U 22029BD  24059.47453299  .00001403  00000-0  10625-3 0  9993,2 52139  53.2176 162.0763 0001636  89.2520 270.8660 15.08831407109043,6917.907,95.438,540.903,538.64,0.0
52139.0,STARLINK-3730,PAYLOAD,2024-02-28 12:58:42,15.08837661,0.0001585,53.2175,161.7789,91.5426,268.5748,3.5481e-05,2.77e-06,0.0,0 STARLINK-3730,1 52139U 22029BD  24059.54077183  .00000277  00000-0  35481-4 0  9991,2 52139  53.2175 161.7789 0001585  91.5426 268.5748 15.08837661109050,6917.888,95.438,540.849,538.656,0.0
52139.0,STARLINK-3730,PAYLOAD,2024-02-28 16:09:28,15.08839904,0.0001753,53.2166,161.1823,94.8648,265.2545,4.8457e-05,4.83e-06,0.0,0 STARLINK-3730,1 52139U 22029BD  24059.67324967  .00000483  00000-0  48457-4 0  9996,2 52139  53.2166 161.1823 0001753  94.8648 265.2545 15.08839904109075,6917.881,95.438,540.958,538.533,0.0
52139.0,STARLINK-3730,PAYLOAD,2024-02-29 12:49:29,15.08847695,0.0001564,53.2154,157.3156,89.4637,270.6535,-4.7161e-06,-3.63e-06,0.0,0 STARLINK-3730,1 52139U 22029BD  24060.53436612 -.00000363  00000-0 -47161-5 0  9995,2 52139  53.2154 157.3156 0001564  89.4637 270.6535 15.08847695109206,6917.857,95.437,540.804,538.64,0.0
52139.0,STARLINK-3730,PAYLOAD,2024-03-01 12:40:16,15.08834258,0.0001553,53.2156,152.8555,95.3143,264.8027,0.00022492,3.293e-05,0.0,0 STARLINK-3730,1 52139U 22029BD  24061.52796629  .00003293  00000-0  22492-3 0  9993,2 52139  53.2156 152.8555 0001553  95.3143 264.8027 15.08834258109355,6917.898,95.438,540.837,538.689,0.0
52139.0,STARLINK-3730,PAYLOAD,2024-03-02 12:31:03,15.08843036,0.0001489,53.2174,148.3971,87.1552,272.9611,2.5507e-05,1.18e-06,0.0,0 STARLINK-3730,1 52139U 22029BD  24062.52156516  .00000118  00000-0  25507-4 0  9993,2 52139  53.2174 148.3971 0001489  87.1552 272.9611 15.08843036109508,6917.871,95.437,540.766,538.706,0.0
52139.0,STARLINK-3730,PAYLOAD,2024-03-03 12:21:50,15.08838206,0.0001488,53.2174,143.9347,90.0503,270.066,-3.9148e-05,-9.11e-06,0.0,0 STARLINK-3730,1 52139U 22029BD  24063.51517124 -.00000911  00000-0 -39148-4 0  9998,2 52139  53.2174 143.9347 0001488  90.0503 270.0660 15.08838206109656,6917.886,95.438,540.78,538.721,0.0
